HELIOS 2A               
1 28492U 04049A   25066.81612911  .00002972  00000+0  24204-3 0  9994
2 28492  98.3241  84.1580 0008298  81.6611 278.5552 15.00360478 83773
SPIRALE A               
1 33751U 09008C   25066.68257482  .00003300  00000+0  18558-2 0  9991
2 33751   2.1121  13.9546 5573741   6.2087 358.4787  4.61171791240545
SPIRALE B               
1 33752U 09008D   25066.14599233  .00006025  00000+0  14905-2 0  9995
2 33752   1.9999 291.4858 6727342 167.0890 227.1518  3.00155151153914
SAPPHIRE                
1 39088U 13009C   25066.80506422  .00000351  00000+0  13820-3 0  9992
2 39088  98.4129 252.7596 0010997 192.2554 167.8366 14.35004368629685
